[{"OBJECT_NAME":"LEMUR-2-JK0903EM1407","OBJECT_ID":"2023-174CJ","EPOCH":"2026-03-28T18:02:40.272864","MEAN_MOTION":15.47698798,"ECCENTRICITY":0.00053248,"INCLINATION":97.3899,"RA_OF_ASC_NODE":176.2318,"ARG_OF_PERICENTER":56.2344,"MEAN_ANOMALY":303.9413,"EPHEMERIS_TYPE":0,"CLASSIFICATION_TYPE":"U","NORAD_CAT_ID":58336,"ELEMENT_SET_NO":999,"REV_AT_EPOCH":13327,"BSTAR":0.00055370191,"MEAN_MOTION_DOT":0.00028621,"MEAN_MOTION_DDOT":0},{"OBJECT_NAME":"LEMUR-2-MJR092620","OBJECT_ID":"2023-174CN","EPOCH":"2026-03-28T21:44:28.061376","MEAN_MOTION":15.42640681,"ECCENTRICITY":0.00076702,"INCLINATION":97.3966,"RA_OF_ASC_NODE":176.619,"ARG_OF_PERICENTER":57.9278,"MEAN_ANOMALY":302.2714,"EPHEMERIS_TYPE":0,"CLASSIFICATION_TYPE":"U","NORAD_CAT_ID":58340,"ELEMENT_SET_NO":999,"REV_AT_EPOCH":13326,"BSTAR":0.00033291458,"MEAN_MOTION_DOT":0.00014432,"MEAN_MOTION_DDOT":0},{"OBJECT_NAME":"LEMUR-2-NIMBUS2000","OBJECT_ID":"2024-022A","EPOCH":"2026-03-28T19:56:07.625184","MEAN_MOTION":15.37451885,"ECCENTRICITY":0.00102762,"INCLINATION":97.4212,"RA_OF_ASC_NODE":296.9308,"ARG_OF_PERICENTER":53.5111,"MEAN_ANOMALY":306.7079,"EPHEMERIS_TYPE":0,"CLASSIFICATION_TYPE":"U","NORAD_CAT_ID":58899,"ELEMENT_SET_NO":999,"REV_AT_EPOCH":11991,"BSTAR":0.00053097496,"MEAN_MOTION_DOT":0.00019476,"MEAN_MOTION_DDOT":0},{"OBJECT_NAME":"LEMUR-2-VALHALLA","OBJECT_ID":"2024-022B","EPOCH":"2026-03-28T13:15:29.797344","MEAN_MOTION":15.37197207,"ECCENTRICITY":0.00107369,"INCLINATION":97.4213,"RA_OF_ASC_NODE":296.6758,"ARG_OF_PERICENTER":50.0444,"MEAN_ANOMALY":310.1742,"EPHEMERIS_TYPE":0,"CLASSIFICATION_TYPE":"U","NORAD_CAT_ID":58900,"ELEMENT_SET_NO":999,"REV_AT_EPOCH":11987,"BSTAR":0.00052539055,"MEAN_MOTION_DOT":0.00019114,"MEAN_MOTION_DDOT":0},{"OBJECT_NAME":"LEMUR-2-OBA-NI-JESU","OBJECT_ID":"2024-022D","EPOCH":"2026-03-28T21:10:39.713376","MEAN_MOTION":15.69766533,"ECCENTRICITY":0.00030971,"INCLINATION":97.4021,"RA_OF_ASC_NODE":306.9819,"ARG_OF_PERICENTER":10.6481,"MEAN_ANOMALY":349.4846,"EPHEMERIS_TYPE":0,"CLASSIFICATION_TYPE":"U","NORAD_CAT_ID":58902,"ELEMENT_SET_NO":999,"REV_AT_EPOCH":12060,"BSTAR":0.0011581357,"MEAN_MOTION_DOT":0.00139603,"MEAN_MOTION_DDOT":0},{"OBJECT_NAME":"LEMUR-2-CAEL","OBJECT_ID":"2024-022E","EPOCH":"2026-03-28T13:27:50.640192","MEAN_MOTION":15.3835888,"ECCENTRICITY":0.0008662,"INCLINATION":97.4196,"RA_OF_ASC_NODE":297.4877,"ARG_OF_PERICENTER":35.796,"MEAN_ANOMALY":324.3863,"EPHEMERIS_TYPE":0,"CLASSIFICATION_TYPE":"U","NORAD_CAT_ID":58903,"ELEMENT_SET_NO":999,"REV_AT_EPOCH":11993,"BSTAR":0.00052492,"MEAN_MOTION_DOT":0.00019819,"MEAN_MOTION_DDOT":0},{"OBJECT_NAME":"LEMUR-2-JOHNNYTRUONG","OBJECT_ID":"2024-043BA","EPOCH":"2026-03-28T15:35:51.575136","MEAN_MOTION":15.54580093,"ECCENTRICITY":0.0005281,"INCLINATION":97.5285,"RA_OF_ASC_NODE":234.7704,"ARG_OF_PERICENTER":122.2229,"MEAN_ANOMALY":237.9536,"EPHEMERIS_TYPE":0,"CLASSIFICATION_TYPE":"U","NORAD_CAT_ID":59146,"ELEMENT_SET_NO":999,"REV_AT_EPOCH":11550,"BSTAR":0.00067124,"MEAN_MOTION_DOT":0.00044417,"MEAN_MOTION_DDOT":0},{"OBJECT_NAME":"LEMUR-2-TOMATOKECHUP","OBJECT_ID":"2024-149D","EPOCH":"2026-03-28T22:26:19.241952","MEAN_MOTION":15.34295691,"ECCENTRICITY":0.00029353,"INCLINATION":97.3819,"RA_OF_ASC_NODE":169.8768,"ARG_OF_PERICENTER":137.024,"MEAN_ANOMALY":223.1233,"EPHEMERIS_TYPE":0,"CLASSIFICATION_TYPE":"U","NORAD_CAT_ID":60471,"ELEMENT_SET_NO":999,"REV_AT_EPOCH":8985,"BSTAR":0.00042694531,"MEAN_MOTION_DOT":0.00014108,"MEAN_MOTION_DDOT":0},{"OBJECT_NAME":"LEMUR-2-STELLA","OBJECT_ID":"2024-149BT","EPOCH":"2026-03-28T17:58:07.617792","MEAN_MOTION":15.09970059,"ECCENTRICITY":0.00011542,"INCLINATION":97.6752,"RA_OF_ASC_NODE":169.9626,"ARG_OF_PERICENTER":104.1299,"MEAN_ANOMALY":256.0058,"EPHEMERIS_TYPE":0,"CLASSIFICATION_TYPE":"U","NORAD_CAT_ID":60533,"ELEMENT_SET_NO":999,"REV_AT_EPOCH":8835,"BSTAR":0.00092588894,"MEAN_MOTION_DOT":0.00014987,"MEAN_MOTION_DDOT":0},{"OBJECT_NAME":"LEMUR-2-MARHISYAM","OBJECT_ID":"2024-149BW","EPOCH":"2026-03-28T21:37:12.360000","MEAN_MOTION":15.09507322,"ECCENTRICITY":0.00027186,"INCLINATION":97.69,"RA_OF_ASC_NODE":170.4768,"ARG_OF_PERICENTER":66.1068,"MEAN_ANOMALY":294.0445,"EPHEMERIS_TYPE":0,"CLASSIFICATION_TYPE":"U","NORAD_CAT_ID":60536,"ELEMENT_SET_NO":999,"REV_AT_EPOCH":8836,"BSTAR":0.00091998991,"MEAN_MOTION_DOT":0.00014703,"MEAN_MOTION_DDOT":0},{"OBJECT_NAME":"LEMUR-2-AHMED-ASRAR","OBJECT_ID":"2024-149DN","EPOCH":"2026-03-28T21:01:15.028896","MEAN_MOTION":15.10857895,"ECCENTRICITY":7.481e-5,"INCLINATION":97.7011,"RA_OF_ASC_NODE":172.248,"ARG_OF_PERICENTER":242.6494,"MEAN_ANOMALY":117.4659,"EPHEMERIS_TYPE":0,"CLASSIFICATION_TYPE":"U","NORAD_CAT_ID":60576,"ELEMENT_SET_NO":999,"REV_AT_EPOCH":8843,"BSTAR":0.00075614531,"MEAN_MOTION_DOT":0.00012526,"MEAN_MOTION_DDOT":0},{"OBJECT_NAME":"LEMUR-2-LLOYD","OBJECT_ID":"2024-149DP","EPOCH":"2026-03-28T18:38:47.472576","MEAN_MOTION":15.07617785,"ECCENTRICITY":0.00047623,"INCLINATION":97.6765,"RA_OF_ASC_NODE":168.9583,"ARG_OF_PERICENTER":75.033,"MEAN_ANOMALY":285.1425,"EPHEMERIS_TYPE":0,"CLASSIFICATION_TYPE":"U","NORAD_CAT_ID":60577,"ELEMENT_SET_NO":999,"REV_AT_EPOCH":8827,"BSTAR":0.00091199097,"MEAN_MOTION_DOT":0.00013843,"MEAN_MOTION_DDOT":0},{"OBJECT_NAME":"LEMUR-2-SQUIRRELCOMM","OBJECT_ID":"2024-149DQ","EPOCH":"2026-03-28T18:18:27.520128","MEAN_MOTION":15.06163005,"ECCENTRICITY":0.00046309,"INCLINATION":97.6738,"RA_OF_ASC_NODE":168.9831,"ARG_OF_PERICENTER":336.4088,"MEAN_ANOMALY":23.6926,"EPHEMERIS_TYPE":0,"CLASSIFICATION_TYPE":"U","NORAD_CAT_ID":60578,"ELEMENT_SET_NO":999,"REV_AT_EPOCH":8829,"BSTAR":0.00056799768,"MEAN_MOTION_DOT":8.258e-5,"MEAN_MOTION_DDOT":0},{"OBJECT_NAME":"LEMUR-2-SIERRINI","OBJECT_ID":"2024-149DR","EPOCH":"2026-03-28T18:35:35.381184","MEAN_MOTION":15.09170724,"ECCENTRICITY":0.00065665,"INCLINATION":97.6856,"RA_OF_ASC_NODE":170.1191,"ARG_OF_PERICENTER":97.6876,"MEAN_ANOMALY":262.5098,"EPHEMERIS_TYPE":0,"CLASSIFICATION_TYPE":"U","NORAD_CAT_ID":60579,"ELEMENT_SET_NO":999,"REV_AT_EPOCH":8832,"BSTAR":0.00097067189,"MEAN_MOTION_DOT":0.00015382,"MEAN_MOTION_DDOT":0},{"OBJECT_NAME":"LEMUR-2-WILSON","OBJECT_ID":"2025-009CP","EPOCH":"2026-03-28T18:38:36.639744","MEAN_MOTION":14.9479115,"ECCENTRICITY":0.00019016,"INCLINATION":97.7054,"RA_OF_ASC_NODE":167.6677,"ARG_OF_PERICENTER":332.7436,"MEAN_ANOMALY":27.3685,"EPHEMERIS_TYPE":0,"CLASSIFICATION_TYPE":"U","NORAD_CAT_ID":62694,"ELEMENT_SET_NO":999,"REV_AT_EPOCH":6534,"BSTAR":0.00030258989,"MEAN_MOTION_DOT":3.235e-5,"MEAN_MOTION_DDOT":0},{"OBJECT_NAME":"LEMUR-2-STAR-FOX","OBJECT_ID":"2025-009CR","EPOCH":"2026-03-28T19:27:47.903040","MEAN_MOTION":15.01257349,"ECCENTRICITY":0.00035293,"INCLINATION":97.7002,"RA_OF_ASC_NODE":170.0921,"ARG_OF_PERICENTER":119.7868,"MEAN_ANOMALY":240.3707,"EPHEMERIS_TYPE":0,"CLASSIFICATION_TYPE":"U","NORAD_CAT_ID":62696,"ELEMENT_SET_NO":999,"REV_AT_EPOCH":6549,"BSTAR":0.00088097432,"MEAN_MOTION_DOT":0.00011274,"MEAN_MOTION_DDOT":0}]
